{
  "norad_id": 60203,
  "name": "2024-125A",
  "history": [
    {
      "epoch": "2026-03-28T13:57:41.446944Z",
      "apogee_km": 402.8784317810505,
      "perigee_km": 385.918648281704,
      "latitude_deg": 4.531647516886101e-06,
      "longitude_deg": -91.11491094122913,
      "height_km": 404.5493479908302,
      "semi_major_axis_km": 6772.5355400313765,
      "eccentricity": 0.0012521,
      "inclination_deg": 97.242,
      "raan_deg": 304.3079,
      "arg_perigee_deg": 145.8419,
      "mean_anomaly_deg": 214.3645,
      "mean_motion_rev_day": 15.57671317
    },
    {
      "epoch": "2026-03-29T02:17:43.891296Z",
      "apogee_km": 402.6491081297254,
      "perigee_km": 385.768359154049,
      "latitude_deg": -7.144678737682241e-05,
      "longitude_deg": 83.89127385800418,
      "height_km": 404.1488703035288,
      "semi_major_axis_km": 6772.345733641887,
      "eccentricity": 0.0012463,
      "inclination_deg": 97.2416,
      "raan_deg": 304.8308,
      "arg_perigee_deg": 143.755,
      "mean_anomaly_deg": 216.4552,
      "mean_motion_rev_day": 15.57736802
    }
  ]
}